{
  "norad_id": 51888,
  "name": "STARLINK-3536",
  "history": [
    {
      "epoch": "2026-03-28T18:39:02.179584",
      "apogee_km": 540.7250684268483,
      "perigee_km": 538.7328613862746,
      "latitude_deg": -52.772365701029756,
      "longitude_deg": 163.40242176014,
      "semi_major_axis_km": 6917.865964906561,
      "eccentricity": 0.00014399,
      "inclination_deg": 53.2168,
      "raan_deg": 273.4372,
      "arg_perigee_deg": 93.4213,
      "mean_anomaly_deg": 266.6944,
      "mean_motion_rev_day": 15.08844719
    }
  ]
}